[ {"name": "STARLINK-5626", "line1": "1 55435U 23014AW  26192.29072005  .00000483  00000+0  48310-4 0  9991", "line2": "2 55435  69.9997 152.7846 0003486 263.6184  96.4578 14.98332922189580"}, {"name": "STARLINK-5640", "line1": "1 55436U 23014AX  26192.30325778 -.00000967  00000+0 -73305-4 0  9993", "line2": "2 55436  70.0001 152.8267 0003340 268.9956  91.0820 14.98321686189588"}, {"name": "STARLINK-5074", "line1": "1 55438U 23014AZ  26191.21792166  .00000918  00000+0  84712-4 0  9991", "line2": "2 55438  70.0002 115.3473 0003133 263.8793  96.2009 14.98339597190417"}, {"name": "STARLINK-5634", "line1": "1 55439U 23014BA  26192.30741543 -.00000006  00000+0  73224-5 0  9992", "line2": "2 55439  69.9989 152.8425 0003354 263.3165  96.7612 14.98331500189582"}, {"name": "STARLINK-5699", "line1": "1 55449U 23015A   26192.50028908  .00000298  00000+0  20348-4 0  9999", "line2": "2 55449  43.0056 349.8224 0001675 283.9749  76.0916 15.27587969190592"}, {"name": "STARLINK-5686", "line1": "1 55450U 23015B   26192.49643975  .00000354  00000+0  22391-4 0  9999", "line2": "2 55450  43.0049 349.7948 0002294 281.1260  78.9334 15.27575527190596"}, {"name": "STARLINK-5656", "line1": "1 55451U 23015C   26192.50414097 -.00000003  00000+0  94344-5 0  9993", "line2": "2 55451  43.0034 349.8472 0001615 264.3191  95.7477 15.27587819189653"}, {"name": "STARLINK-5683", "line1": "1 55452U 23015D   26192.51184544  .00000946  00000+0  43883-4 0  9992", "line2": "2 55452  42.9956 349.8872 0001486 187.0802 173.0029 15.27586366189654"}, {"name": "STARLINK-5684", "line1": "1 55453U 23015E   26191.48224998 -.00001753  00000+0 -54192-4 0  9990", "line2": "2 55453  43.0070 355.0831 0002245 278.6526  81.4071 15.27563921189507"}, {"name": "STARLINK-5636", "line1": "1 55454U 23015F   26192.73484547  .00000311  00000+0  20812-4 0  9997", "line2": "2 55454  43.0041 348.1332 0001249 275.5318  84.5391 15.27575323189691"}, {"name": "STARLINK-5680", "line1": "1 55455U 23015G   26192.50799385  .00000600  00000+0  31338-4 0  9998", "line2": "2 55455  43.0049 349.8770 0002116 270.9152  89.1457 15.27574920189655"}, {"name": "STARLINK-5058", "line1": "1 55456U 23015H   26192.75002315  .00005162  00000+0  19701-3 0  9993", "line2": "2 55456  43.0024 348.0250 0001249 272.7029 185.0734 15.27573605  5630"}, {"name": "STARLINK-5682", "line1": "1 55457U 23015J   26192.72842146 -.00000263  00000+0 -15153-7 0  9995", "line2": "2 55457  43.0065 348.0959 0001940 283.0436  77.0199 15.27576539189690"}, {"name": "STARLINK-5020", "line1": "1 55458U 23015K   26192.48873509  .00000962  00000+0  44487-4 0  9999", "line2": "2 55458  43.0043 349.7285 0001166 272.4826  87.5892 15.27560805189653"}, {"name": "STARLINK-5669", "line1": "1 55459U 23015L   26192.67715414 -.00024894  00000+0 -89508-3 0  9995", "line2": "2 55459  43.0030 348.5661 0001727 272.3884  87.6770 15.27690135189680"}, {"name": "STARLINK-5678", "line1": "1 55460U 23015M   26192.48486640 -.00000738  00000+0 -17298-4 0  9991", "line2": "2 55460  43.0028 349.7005 0001261 256.5675 103.5037 15.27575570189655"}, {"name": "STARLINK-5646", "line1": "1 55461U 23015N   26192.47715164  .00000263  00000+0  19087-4 0  9996", "line2": "2 55461  43.0019 349.6426 0000859 194.5252 165.5575 15.27575136189659"}, {"name": "STARLINK-5673", "line1": "1 55462U 23015P   26192.46045728 -.00000802  00000+0 -19636-4 0  9999", "line2": "2 55462  43.0037 349.5146 0001382 270.3854  89.6839 15.27570050189650"}, {"name": "STARLINK-5677", "line1": "1 55463U 23015Q   26190.82062254  .00016533  00000+0  79140-3 0  9992", "line2": "2 55463  42.9993   8.9573 0006554 272.9478  87.0620 15.18698573189286"}, {"name": "STARLINK-5676", "line1": "1 55464U 23015R   26192.47458524  .00000425  00000+0  24957-4 0  9995", "line2": "2 55464  43.0035 349.6204 0001493 267.6163  92.4518 15.27576574189654"}, {"name": "STARLINK-5674", "line1": "1 55465U 23015S   26191.74503391  .00017163  00000+0  63014-3 0  9991", "line2": "2 55465  43.0166 353.6185 0000736 261.2833  98.7935 15.27665663189544"}, {"name": "STARLINK-5628", "line1": "1 55466U 23015T   26192.48615109 -.00000659  00000+0 -14403-4 0  9998", "line2": "2 55466  43.0042 349.7054 0001588 273.1869  86.8801 15.27585833189658"}, {"name": "STARLINK-5679", "line1": "1 55467U 23015U   26192.71814514  .00000842  00000+0  40119-4 0  9991", "line2": "2 55467  43.0025 348.0065 0001331 272.9012  87.1687 15.27581979189694"}, {"name": "STARLINK-5672", "line1": "1 55468U 23015V   26192.47843660 -.00000134  00000+0  46823-5 0  9993", "line2": "2 55468  42.9959 349.6411 0002736 150.6750 209.4256 15.27572365189658"}, {"name": "STARLINK-5681", "line1": "1 55469U 23015W   26192.46816212  .00000222  00000+0  17604-4 0  9997", "line2": "2 55469  43.0041 349.5757 0001163 271.0734  88.9984 15.27574174189656"}, {"name": "STARLINK-5708", "line1": "1 55470U 23015X   26192.48229469 -.00000675  00000+0 -15020-4 0  9997", "line2": "2 55470  43.0045 349.6793 0001126 261.8473  98.2251 15.27574624189650"}, {"name": "STARLINK-5711", "line1": "1 55471U 23015Y   26191.33336806  .00029000  00000+0  10593-2 0  9994", "line2": "2 55471  43.0022 355.8580 0001295 246.6508  35.0712 15.27576283  5815"}, {"name": "STARLINK-5705", "line1": "1 55472U 23015Z   26191.89605564 -.00000759  00000+0 -18038-4 0  9992", "line2": "2 55472  43.0049 345.9862 0001968 271.4027  88.6600 15.27579070189648"}, {"name": "STARLINK-5689", "line1": "1 55474U 23015AB  26192.48100213 -.00000870  00000+0 -22111-4 0  9992", "line2": "2 55474  43.0026   0.9547 0001555 228.6138 131.4580 15.27572113189524"}]