OBJECT_NAME,OBJECT_ID,EPOCH,MEAN_MOTION,ECCENTRICITY,INCLINATION,RA_OF_ASC_NODE,ARG_OF_PERICENTER,MEAN_ANOMALY,EPHEMERIS_TYPE,CLASSIFICATION_TYPE,NORAD_CAT_ID,ELEMENT_SET_NO,REV_AT_EPOCH,BSTAR,MEAN_MOTION_DOT,MEAN_MOTION_DDOT
STARLINK-5626,2023-014AW,2026-07-11T06:58:38.212320,14.98332922,.00034869,69.9997,152.7846,263.6184,96.4578,0,U,55435,999,18958,.48310228E-4,.483E-5,0
STARLINK-5640,2023-014AX,2026-07-11T07:16:41.472192,14.98321686,.00033408,70.0001,152.8267,268.9956,91.0820,0,U,55436,999,18958,-.73304797E-4,-.967E-5,0
STARLINK-5074,2023-014AZ,2026-07-10T05:13:48.431424,14.98339597,.00031336,70.0002,115.3473,263.8793,96.2009,0,U,55438,999,19041,.84711969E-4,.918E-5,0
STARLINK-5634,2023-014BA,2026-07-11T07:22:40.693152,14.98331500,.0003354,69.9989,152.8425,263.3165,96.7612,0,U,55439,999,18958,.7322384E-5,-.6E-7,0
STARLINK-5699,2023-015A,2026-07-11T12:00:24.976512,15.27587969,.00016755,43.0056,349.8224,283.9749,76.0916,0,U,55449,999,19059,.2034755E-4,.298E-5,0
STARLINK-5686,2023-015B,2026-07-11T11:54:52.394400,15.27575527,.0002294,43.0049,349.7948,281.1260,78.9334,0,U,55450,999,19059,.22391244E-4,.354E-5,0
STARLINK-5656,2023-015C,2026-07-11T12:05:57.779808,15.27587819,.00016151,43.0034,349.8472,264.3191,95.7477,0,U,55451,999,18965,.9434403E-5,-.3E-7,0
STARLINK-5683,2023-015D,2026-07-11T12:17:03.446016,15.27586366,.00014865,42.9956,349.8872,187.0802,173.0029,0,U,55452,999,18965,.43882509E-4,.946E-5,0
STARLINK-5684,2023-015E,2026-07-10T11:34:26.398272,15.27563921,.0002245,43.0070,355.0831,278.6526,81.4071,0,U,55453,999,18950,-.54192E-4,-.1753E-4,0
STARLINK-5636,2023-015F,2026-07-11T17:38:10.648608,15.27575323,.00012493,43.0041,348.1332,275.5318,84.5391,0,U,55454,999,18969,.20812026E-4,.311E-5,0
STARLINK-5680,2023-015G,2026-07-11T12:11:30.668640,15.27574920,.0002116,43.0049,349.8770,270.9152,89.1457,0,U,55455,999,18965,.31338455E-4,.6E-5,0
STARLINK-5058,2023-015H,2026-07-11T18:00:02.000160,15.27573605,.00012493,43.0024,348.0250,272.7029,185.0734,0,U,55456,999,563,.19700521E-3,.5162E-4,0
STARLINK-5682,2023-015J,2026-07-11T17:28:55.614144,15.27576539,.00019401,43.0065,348.0959,283.0436,77.0199,0,U,55457,999,18969,-.15153E-7,-.263E-5,0
STARLINK-5020,2023-015K,2026-07-11T11:43:46.711776,15.27560805,.0001166,43.0043,349.7285,272.4826,87.5892,0,U,55458,999,18965,.44487352E-4,.962E-5,0
STARLINK-5669,2023-015L,2026-07-11T16:15:06.117696,15.27690135,.00017272,43.0030,348.5661,272.3884,87.6770,0,U,55459,999,18968,-.89507503E-3,-.24894E-3,0
STARLINK-5678,2023-015M,2026-07-11T11:38:12.456960,15.27575570,.00012614,43.0028,349.7005,256.5675,103.5037,0,U,55460,999,18965,-.17297678E-4,-.738E-5,0
STARLINK-5646,2023-015N,2026-07-11T11:27:05.901696,15.27575136,.00008598,43.0019,349.6426,194.5252,165.5575,0,U,55461,999,18965,.19086674E-4,.263E-5,0
STARLINK-5673,2023-015P,2026-07-11T11:03:03.508992,15.27570050,.0001382,43.0037,349.5146,270.3854,89.6839,0,U,55462,999,18965,-.1963582E-4,-.802E-5,0
STARLINK-5677,2023-015Q,2026-07-09T19:41:41.787456,15.18698573,.00065546,42.9993,8.9573,272.9478,87.0620,0,U,55463,999,18928,.79140016E-3,.16533E-3,0
STARLINK-5676,2023-015R,2026-07-11T11:23:24.164736,15.27576574,.0001493,43.0035,349.6204,267.6163,92.4518,0,U,55464,999,18965,.24956848E-4,.425E-5,0
STARLINK-5674,2023-015S,2026-07-10T17:52:50.929824,15.27665663,.0000736,43.0166,353.6185,261.2833,98.7935,0,U,55465,999,18954,.63014158E-3,.17163E-3,0
STARLINK-5628,2023-015T,2026-07-11T11:40:03.454176,15.27585833,.00015881,43.0042,349.7054,273.1869,86.8801,0,U,55466,999,18965,-.14402939E-4,-.659E-5,0
STARLINK-5679,2023-015U,2026-07-11T17:14:07.740096,15.27581979,.00013313,43.0025,348.0065,272.9012,87.1687,0,U,55467,999,18969,.40119417E-4,.842E-5,0
STARLINK-5672,2023-015V,2026-07-11T11:28:56.922240,15.27572365,.00027365,42.9959,349.6411,150.6750,209.4256,0,U,55468,999,18965,.468233E-5,-.134E-5,0
STARLINK-5681,2023-015W,2026-07-11T11:14:09.207168,15.27574174,.00011635,43.0041,349.5757,271.0734,88.9984,0,U,55469,999,18965,.17603903E-4,.222E-5,0
STARLINK-5708,2023-015X,2026-07-11T11:34:30.261216,15.27574624,.00011268,43.0045,349.6793,261.8473,98.2251,0,U,55470,999,18965,-.15019782E-4,-.675E-5,0
STARLINK-5711,2023-015Y,2026-07-10T08:00:03.000384,15.27576283,.0001295,43.0022,355.8580,246.6508,35.0712,0,U,55471,999,581,.10593349E-2,.29E-3,0
STARLINK-5705,2023-015Z,2026-07-10T21:30:19.207296,15.27579070,.00019683,43.0049,345.9862,271.4027,88.6600,0,U,55472,999,18964,-.18038113E-4,-.759E-5,0
STARLINK-5689,2023-015AB,2026-07-11T11:32:38.584032,15.27572113,.00015559,43.0026,0.9547,228.6138,131.4580,0,U,55474,999,18952,-.22111107E-4,-.87E-5,0
